{
  "norad_id": 43432,
  "name": "COSMOS 2526",
  "history": [
    {
      "epoch": "2026-03-27T10:18:01.648800Z",
      "apogee_km": 35790.88261447215,
      "perigee_km": 35782.04491415196,
      "latitude_deg": -0.02256943667140333,
      "longitude_deg": 128.0627657236399,
      "height_km": 35781.773309118245,
      "semi_major_axis_km": 42164.60076431206,
      "eccentricity": 0.0001048,
      "inclination_deg": 0.0048,
      "raan_deg": 211.5628,
      "arg_perigee_deg": 237.8588,
      "mean_anomaly_deg": 17.986,
      "mean_motion_rev_day": 1.00272253
    }
  ]
}